IRIDIUM 155             
1 43573U 18061E   20358.73137041  .00000006  00000-0 -48484-5 0  9992
2 43573  86.3983 173.1503 0002408  83.9374 276.2097 14.34216753126490
IRIDIUM 154             
1 43574U 18061F   20359.06116890  .00000003  00000-0 -58154-5 0  9991
2 43574  86.3987 173.0510 0001852  99.7733 260.3672 14.34217481126580
IRIDIUM 163             
1 43575U 18061G   20359.53052294  .00000000  00000-0 -70015-5 0  9998
2 43575  86.3984 172.8312 0001386  82.9496 277.1857 14.34217436126623
IRIDIUM 156             
1 43576U 18061H   20358.73770873  .00000003  00000-0 -61085-5 0  9990
2 43576  86.3984 173.1671 0001913  80.2085 279.9327 14.34217290126492
IRIDIUM 164             
1 43577U 18061J   20358.57913078 -.00000002  00000-0 -76326-5 0  9993
2 43577  86.3985 173.2433 0001727  96.0977 264.0416 14.34218122126522
IRIDIUM 159             
1 43578U 18061K   20358.54742575  .00000003  00000-0 -59273-5 0  9995
2 43578  86.3983 173.2354 0001837  96.7291 263.4114 14.34217231126484
IRIDIUM 180             
1 43922U 19002A   20358.75623852  .00000099  00000-0  28248-4 0  9994
2 43922  86.3975 110.0274 0001574 127.2860 232.8479 14.34218379102165
IRIDIUM 176             
1 43923U 19002B   20358.84986644  .00000236  00000-0  33560-4 0  9992
2 43923  86.6110 110.0196 0002289 101.3797 258.7677 14.72252000104798
IRIDIUM 168             
1 43924U 19002C   20358.40105869  .00000097  00000-0  27452-4 0  9995
2 43924  86.3977 110.1964 0002011 104.8386 255.3032 14.34218183102053
IRIDIUM 173             
1 43925U 19002D   20359.36513454  .00000098  00000-0  27988-4 0  9990
2 43925  86.3975 109.7639 0002002 101.5078 258.6343 14.34217798102183
IRIDIUM 169             
1 43926U 19002E   20359.48056808  .00000135  00000-0  37433-4 0  9997
2 43926  86.4234 141.3057 0007144  89.3377 270.8640 14.38608609102585
IRIDIUM 172             
1 43927U 19002F   20358.38202878  .00000107  00000-0  31191-4 0  9990
2 43927  86.3975 110.1765 0001931 104.0549 256.0862 14.34218565102048
IRIDIUM 175             
1 43928U 19002G   20359.45538894  .00000231  00000-0  32795-4 0  9999
2 43928  86.6095 109.6210 0001898  78.5152 281.6279 14.72252133104870
IRIDIUM 171             
1 43929U 19002H   20358.85137999  .00000098  00000-0  27914-4 0  9992
2 43929  86.3985 110.0643 0002066 104.5800 255.5625 14.34217983102101
IRIDIUM 170             
1 43930U 19002J   20359.05995309  .00000086  00000-0  97413-5 0  9993
2 43930  86.6111 109.9385 0002002  94.3619 265.7827 14.72247871104831
IRIDIUM 167             
1 43931U 19002K   20358.56595392  .00000102  00000-0  29407-4 0  9993
2 43931  86.3975 110.1043 0001724 120.9320 239.2045 14.34222284102067
